{"fetched_at":"2026-03-30T06:02:59Z","count":15439,"tles":[{"name":"STARLINK-3518","line1":"1 51732U 22016U   26087.67406361  .00000222  00000+0  32067-4 0  9992","line2":"2 51732  53.2163 233.8974 0001463  92.6920 267.4239 15.08843271227573","category":"Starlink"}]}